[
    {
        "CCSDS_OMM_VERS": "3.0",
        "COMMENT": "GENERATED VIA SPACE-TRACK.ORG API",
        "CREATION_DATE": "2025-05-03T17:28:03",
        "ORIGINATOR": "18 SPCS",
        "OBJECT_NAME": "NAVSTAR 78 (USA 293)",
        "OBJECT_ID": "2019-056A",
        "CENTER_NAME": "EARTH",
        "REF_FRAME": "TEME",
        "TIME_SYSTEM": "UTC",
        "MEAN_ELEMENT_THEORY": "SGP4",
        "EPOCH": "2025-05-03T01:23:28.743648",
        "MEAN_MOTION": "2.00561561",
        "ECCENTRICITY": "0.00506420",
        "INCLINATION": "55.7931",
        "RA_OF_ASC_NODE": "347.4203",
        "ARG_OF_PERICENTER": "193.1682",
        "MEAN_ANOMALY": "338.5465",
        "EPHEMERIS_TYPE": "0",
        "CLASSIFICATION_TYPE": "U",
        "NORAD_CAT_ID": "44506",
        "ELEMENT_SET_NO": "999",
        "REV_AT_EPOCH": "4184",
        "BSTAR": "0.00000000000000",
        "MEAN_MOTION_DOT": "-0.00000099",
        "MEAN_MOTION_DDOT": "0.0000000000000",
        "SEMIMAJOR_AXIS": "26560.528",
        "PERIOD": "717.984",
        "APOAPSIS": "20316.901",
        "PERIAPSIS": "20047.885",
        "OBJECT_TYPE": "PAYLOAD",
        "RCS_SIZE": "LARGE",
        "COUNTRY_CODE": "US",
        "LAUNCH_DATE": "2019-08-22",
        "SITE": "AFETR",
        "DECAY_DATE": null,
        "FILE": "4717971",
        "GP_ID": "286763244",
        "TLE_LINE0": "0 NAVSTAR 78 (USA 293)",
        "TLE_LINE1": "1 44506U 19056A   25123.05797157 -.00000099  00000-0  00000-0 0  9993",
        "TLE_LINE2": "2 44506  55.7931 347.4203 0050642 193.1682 338.5465  2.00561561 41848"
    }
]